CCSDS_OMM_VERS = 2.0
CREATION_DATE  = 
ORIGINATOR     = 

OBJECT_NAME    = AQUA
OBJECT_ID      = 2002-022A
CENTER_NAME    = EARTH
REF_FRAME      = TEME
TIME_SYSTEM    = UTC
MEAN_ELEMENT_THEORY = SGP/SGP4

EPOCH          = 2026-03-10T05:48:21.184704
MEAN_MOTION    = 14.61978935
ECCENTRICITY   = .00005605
INCLINATION    = 98.4176
RA_OF_ASC_NODE = 36.6168
ARG_OF_PERICENTER = 82.4708
MEAN_ANOMALY   = 30.3304

EPHEMERIS_TYPE = 0
CLASSIFICATION_TYPE = U
NORAD_CAT_ID   = 27424
ELEMENT_SET_NO = 999
REV_AT_EPOCH   = 26881
BSTAR          = .29098579E-3
MEAN_MOTION_DOT = .1409E-4
MEAN_MOTION_DDOT = 0

CCSDS_OMM_VERS = 2.0
CREATION_DATE  = 
ORIGINATOR     = 

OBJECT_NAME    = CZ-4B R/B
OBJECT_ID      = 2002-024C
CENTER_NAME    = EARTH
REF_FRAME      = TEME
TIME_SYSTEM    = UTC
MEAN_ELEMENT_THEORY = SGP/SGP4

EPOCH          = 2026-03-10T03:16:03.163008
MEAN_MOTION    = 14.14547639
ECCENTRICITY   = .00504624
INCLINATION    = 98.8838
RA_OF_ASC_NODE = 122.5407
ARG_OF_PERICENTER = 22.9379
MEAN_ANOMALY   = 1.3520

EPHEMERIS_TYPE = 0
CLASSIFICATION_TYPE = U
NORAD_CAT_ID   = 27432
ELEMENT_SET_NO = 999
REV_AT_EPOCH   = 22930
BSTAR          = .423045E-4
MEAN_MOTION_DOT = .38E-6
MEAN_MOTION_DDOT = 0

CCSDS_OMM_VERS = 2.0
CREATION_DATE  = 
ORIGINATOR     = 

OBJECT_NAME    = MIDORI II (ADEOS-II)
OBJECT_ID      = 2002-056A
CENTER_NAME    = EARTH
REF_FRAME      = TEME
TIME_SYSTEM    = UTC
MEAN_ELEMENT_THEORY = SGP/SGP4

EPOCH          = 2026-03-09T20:58:08.669280
MEAN_MOTION    = 14.29285373
ECCENTRICITY   = .000157
INCLINATION    = 98.7769
RA_OF_ASC_NODE = 27.3525
ARG_OF_PERICENTER = 42.2245
MEAN_ANOMALY   = 317.9057

EPHEMERIS_TYPE = 0
CLASSIFICATION_TYPE = U
NORAD_CAT_ID   = 27597
ELEMENT_SET_NO = 999
REV_AT_EPOCH   = 21032
BSTAR          = .1815516E-3
MEAN_MOTION_DOT = .417E-5
MEAN_MOTION_DDOT = 0

CCSDS_OMM_VERS = 2.0
CREATION_DATE  = 
ORIGINATOR     = 

OBJECT_NAME    = H-2A R/B
OBJECT_ID      = 2002-056E
CENTER_NAME    = EARTH
REF_FRAME      = TEME
TIME_SYSTEM    = UTC
MEAN_ELEMENT_THEORY = SGP/SGP4

EPOCH          = 2026-03-09T22:02:08.732832
MEAN_MOTION    = 14.33760927
ECCENTRICITY   = .0070512
INCLINATION    = 98.3202
RA_OF_ASC_NODE = 29.2750
ARG_OF_PERICENTER = 160.0116
MEAN_ANOMALY   = 268.6683

EPHEMERIS_TYPE = 0
CLASSIFICATION_TYPE = U
NORAD_CAT_ID   = 27601
ELEMENT_SET_NO = 999
REV_AT_EPOCH   = 21414
BSTAR          = .13542E-3
MEAN_MOTION_DOT = .345E-5
MEAN_MOTION_DDOT = 0

CCSDS_OMM_VERS = 2.0
CREATION_DATE  = 
ORIGINATOR     = 

OBJECT_NAME    = CZ-4B R/B
OBJECT_ID      = 2003-049C
CENTER_NAME    = EARTH
REF_FRAME      = TEME
TIME_SYSTEM    = UTC
MEAN_ELEMENT_THEORY = SGP/SGP4

EPOCH          = 2026-03-10T00:03:30.033216
MEAN_MOTION    = 14.55020527
ECCENTRICITY   = .00472703
INCLINATION    = 98.6880
RA_OF_ASC_NODE = 63.9194
ARG_OF_PERICENTER = 229.9345
MEAN_ANOMALY   = 129.7701

EPHEMERIS_TYPE = 0
CLASSIFICATION_TYPE = U
NORAD_CAT_ID   = 28059
ELEMENT_SET_NO = 999
REV_AT_EPOCH   = 18664
BSTAR          = .1227818E-3
MEAN_MOTION_DOT = .485E-5
MEAN_MOTION_DDOT = 0

CCSDS_OMM_VERS = 2.0
CREATION_DATE  = 
ORIGINATOR     = 

OBJECT_NAME    = CZ-2C R/B
OBJECT_ID      = 2004-012C
CENTER_NAME    = EARTH
REF_FRAME      = TEME
TIME_SYSTEM    = UTC
MEAN_ELEMENT_THEORY = SGP/SGP4

EPOCH          = 2026-03-10T02:53:58.478208
MEAN_MOTION    = 15.64563089
ECCENTRICITY   = .00128695
INCLINATION    = 97.7223
RA_OF_ASC_NODE = 134.4534
ARG_OF_PERICENTER = 307.3877
MEAN_ANOMALY   = 52.6209

EPHEMERIS_TYPE = 0
CLASSIFICATION_TYPE = U
NORAD_CAT_ID   = 28222
ELEMENT_SET_NO = 999
REV_AT_EPOCH   = 20434
BSTAR          = .63587919E-3
MEAN_MOTION_DOT = .61764E-3
MEAN_MOTION_DDOT = 0

CCSDS_OMM_VERS = 2.0
CREATION_DATE  = 
ORIGINATOR     = 

OBJECT_NAME    = SL-16 R/B
OBJECT_ID      = 2004-021B
CENTER_NAME    = EARTH
REF_FRAME      = TEME
TIME_SYSTEM    = UTC
MEAN_ELEMENT_THEORY = SGP/SGP4

EPOCH          = 2026-03-09T21:09:03.047328
MEAN_MOTION    = 14.14597913
ECCENTRICITY   = .00040648
INCLINATION    = 70.9995
RA_OF_ASC_NODE = 232.0903
ARG_OF_PERICENTER = 8.9977
MEAN_ANOMALY   = 351.1217

EPHEMERIS_TYPE = 0
CLASSIFICATION_TYPE = U
NORAD_CAT_ID   = 28353
ELEMENT_SET_NO = 999
REV_AT_EPOCH   = 12286
BSTAR          = -.10190568E-3
MEAN_MOTION_DOT = -.243E-5
MEAN_MOTION_DDOT = 0

CCSDS_OMM_VERS = 2.0
CREATION_DATE  = 
ORIGINATOR     = 

OBJECT_NAME    = CZ-4B R/B
OBJECT_ID      = 2004-035C
CENTER_NAME    = EARTH
REF_FRAME      = TEME
TIME_SYSTEM    = UTC
MEAN_ELEMENT_THEORY = SGP/SGP4

EPOCH          = 2026-03-10T02:31:59.569248
MEAN_MOTION    = 15.29073214
ECCENTRICITY   = .00309757
INCLINATION    = 97.3501
RA_OF_ASC_NODE = 103.3428
ARG_OF_PERICENTER = 330.0330
MEAN_ANOMALY   = 29.9136

EPHEMERIS_TYPE = 0
CLASSIFICATION_TYPE = U
NORAD_CAT_ID   = 28415
ELEMENT_SET_NO = 999
REV_AT_EPOCH   = 17997
BSTAR          = .34465502E-3
MEAN_MOTION_DOT = .9794E-4
MEAN_MOTION_DDOT = 0

CCSDS_OMM_VERS = 2.0
CREATION_DATE  = 
ORIGINATOR     = 

OBJECT_NAME    = CZ-2C R/B
OBJECT_ID      = 2004-046B
CENTER_NAME    = EARTH
REF_FRAME      = TEME
TIME_SYSTEM    = UTC
MEAN_ELEMENT_THEORY = SGP/SGP4

EPOCH          = 2026-03-10T06:09:54.446688
MEAN_MOTION    = 14.26992310
ECCENTRICITY   = .01399056
INCLINATION    = 98.1982
RA_OF_ASC_NODE = 344.2056
ARG_OF_PERICENTER = 152.7749
MEAN_ANOMALY   = 208.0857

EPHEMERIS_TYPE = 0
CLASSIFICATION_TYPE = U
NORAD_CAT_ID   = 28480
ELEMENT_SET_NO = 999
REV_AT_EPOCH   = 10858
BSTAR          = .72018467E-4
MEAN_MOTION_DOT = .154E-5
MEAN_MOTION_DDOT = 0

CCSDS_OMM_VERS = 2.0
CREATION_DATE  = 
ORIGINATOR     = 

OBJECT_NAME    = ARIANE 5 R/B
OBJECT_ID      = 2004-049H
CENTER_NAME    = EARTH
REF_FRAME      = TEME
TIME_SYSTEM    = UTC
MEAN_ELEMENT_THEORY = SGP/SGP4

EPOCH          = 2026-03-10T00:53:05.853984
MEAN_MOTION    = 14.85266546
ECCENTRICITY   = .00839107
INCLINATION    = 98.2628
RA_OF_ASC_NODE = 237.5069
ARG_OF_PERICENTER = 350.7967
MEAN_ANOMALY   = 9.1704

EPHEMERIS_TYPE = 0
CLASSIFICATION_TYPE = U
NORAD_CAT_ID   = 28499
ELEMENT_SET_NO = 999
REV_AT_EPOCH   = 14584
BSTAR          = .11593788E-3
MEAN_MOTION_DOT = .994E-5
MEAN_MOTION_DDOT = 0

CCSDS_OMM_VERS = 2.0
CREATION_DATE  = 
ORIGINATOR     = 

OBJECT_NAME    = CZ-2D R/B
OBJECT_ID      = 2005-024B
CENTER_NAME    = EARTH
REF_FRAME      = TEME
TIME_SYSTEM    = UTC
MEAN_ELEMENT_THEORY = SGP/SGP4

EPOCH          = 2026-03-10T00:43:18.931872
MEAN_MOTION    = 15.60183063
ECCENTRICITY   = .00057854
INCLINATION    = 97.3603
RA_OF_ASC_NODE = 84.1881
ARG_OF_PERICENTER = 45.9061
MEAN_ANOMALY   = 314.2671

EPHEMERIS_TYPE = 0
CLASSIFICATION_TYPE = U
NORAD_CAT_ID   = 28738
ELEMENT_SET_NO = 999
REV_AT_EPOCH   = 13983
BSTAR          = .57331686E-3
MEAN_MOTION_DOT = .46744E-3
MEAN_MOTION_DDOT = 0

CCSDS_OMM_VERS = 2.0
CREATION_DATE  = 
ORIGINATOR     = 

OBJECT_NAME    = ALOS (DAICHI)
OBJECT_ID      = 2006-002A
CENTER_NAME    = EARTH
REF_FRAME      = TEME
TIME_SYSTEM    = UTC
MEAN_ELEMENT_THEORY = SGP/SGP4

EPOCH          = 2026-03-09T20:14:22.842816
MEAN_MOTION    = 14.69811163
ECCENTRICITY   = .00009045
INCLINATION    = 98.1218
RA_OF_ASC_NODE = 24.7979
ARG_OF_PERICENTER = 55.8758
MEAN_ANOMALY   = 304.2533

EPHEMERIS_TYPE = 0
CLASSIFICATION_TYPE = U
NORAD_CAT_ID   = 28931
ELEMENT_SET_NO = 999
REV_AT_EPOCH   = 7350
BSTAR          = .32296065E-3
MEAN_MOTION_DOT = .1879E-4
MEAN_MOTION_DDOT = 0

